[{"OBJECT_NAME":"ONEWEB-0060","OBJECT_ID":"2020-020AH","EPOCH":"2026-06-09T02:03:08.419968","MEAN_MOTION":13.11415553,"ECCENTRICITY":0.000166,"INCLINATION":87.8893,"RA_OF_ASC_NODE":22.6791,"ARG_OF_PERICENTER":49.7531,"MEAN_ANOMALY":310.3742,"EPHEMERIS_TYPE":0,"CLASSIFICATION_TYPE":"U","NORAD_CAT_ID":45455,"ELEMENT_SET_NO":999,"REV_AT_EPOCH":30148,"BSTAR":0.00036837999999999997,"MEAN_MOTION_DOT":1.43e-06,"MEAN_MOTION_DDOT":0.0},{"OBJECT_NAME":"ONEWEB-0086","OBJECT_ID":"2020-020AJ","EPOCH":"2026-06-09T01:32:25.996128","MEAN_MOTION":13.1144637,"ECCENTRICITY":8.05e-05,"INCLINATION":87.8881,"RA_OF_ASC_NODE":22.6784,"ARG_OF_PERICENTER":56.6738,"MEAN_ANOMALY":303.4467,"EPHEMERIS_TYPE":0,"CLASSIFICATION_TYPE":"U","NORAD_CAT_ID":45456,"ELEMENT_SET_NO":999,"REV_AT_EPOCH":30154,"BSTAR":-0.0024624,"MEAN_MOTION_DOT":-8.6e-06,"MEAN_MOTION_DDOT":0.0},{"OBJECT_NAME":"ONEWEB-0088","OBJECT_ID":"2020-020AK","EPOCH":"2026-06-09T02:50:45.044160","MEAN_MOTION":13.11419419,"ECCENTRICITY":0.0002219,"INCLINATION":87.8912,"RA_OF_ASC_NODE":22.6399,"ARG_OF_PERICENTER":82.2472,"MEAN_ANOMALY":277.8908,"EPHEMERIS_TYPE":0,"CLASSIFICATION_TYPE":"U","NORAD_CAT_ID":45457,"ELEMENT_SET_NO":999,"REV_AT_EPOCH":30148,"BSTAR":-0.00074308,"MEAN_MOTION_DOT":-2.51e-06,"MEAN_MOTION_DDOT":0.0},{"OBJECT_NAME":"ONEWEB-0102","OBJECT_ID":"2020-100A","EPOCH":"2026-06-09T01:16:03.931392","MEAN_MOTION":13.12445254,"ECCENTRICITY":0.000149,"INCLINATION":87.8938,"RA_OF_ASC_NODE":352.2938,"ARG_OF_PERICENTER":91.133,"MEAN_ANOMALY":268.997,"EPHEMERIS_TYPE":0,"CLASSIFICATION_TYPE":"U","NORAD_CAT_ID":47258,"ELEMENT_SET_NO":999,"REV_AT_EPOCH":26366,"BSTAR":0.0011733000000000002,"MEAN_MOTION_DOT":4.35e-06,"MEAN_MOTION_DDOT":0.0},{"OBJECT_NAME":"ONEWEB-0109","OBJECT_ID":"2020-100B","EPOCH":"2026-06-09T06:57:36.811296","MEAN_MOTION":13.12443708,"ECCENTRICITY":0.0001766,"INCLINATION":87.895,"RA_OF_ASC_NODE":352.2294,"ARG_OF_PERICENTER":94.4415,"MEAN_ANOMALY":265.6915,"EPHEMERIS_TYPE":0,"CLASSIFICATION_TYPE":"U","NORAD_CAT_ID":47259,"ELEMENT_SET_NO":999,"REV_AT_EPOCH":26352,"BSTAR":0.0012523,"MEAN_MOTION_DOT":4.63e-06,"MEAN_MOTION_DDOT":0.0},{"OBJECT_NAME":"ONEWEB-0110","OBJECT_ID":"2020-100C","EPOCH":"2026-06-09T05:46:51.206016","MEAN_MOTION":13.124431,"ECCENTRICITY":0.0001556,"INCLINATION":87.8948,"RA_OF_ASC_NODE":352.2231,"ARG_OF_PERICENTER":84.1979,"MEAN_ANOMALY":275.9327,"EPHEMERIS_TYPE":0,"CLASSIFICATION_TYPE":"U","NORAD_CAT_ID":47260,"ELEMENT_SET_NO":999,"REV_AT_EPOCH":26368,"BSTAR":-0.0005705,"MEAN_MOTION_DOT":-1.93e-06,"MEAN_MOTION_DDOT":0.0},{"OBJECT_NAME":"ONEWEB-0111","OBJECT_ID":"2020-100D","EPOCH":"2026-06-09T01:01:24.611808","MEAN_MOTION":13.1244367,"ECCENTRICITY":0.0001786,"INCLINATION":87.8949,"RA_OF_ASC_NODE":352.2816,"ARG_OF_PERICENTER":85.3468,"MEAN_ANOMALY":274.7864,"EPHEMERIS_TYPE":0,"CLASSIFICATION_TYPE":"U","NORAD_CAT_ID":47261,"ELEMENT_SET_NO":999,"REV_AT_EPOCH":26349,"BSTAR":-0.0005106300000000001,"MEAN_MOTION_DOT":-1.71e-06,"MEAN_MOTION_DDOT":0.0},{"OBJECT_NAME":"ONEWEB-0114","OBJECT_ID":"2020-100E","EPOCH":"2026-06-09T05:24:54.235872","MEAN_MOTION":13.12443007,"ECCENTRICITY":0.0001919,"INCLINATION":87.8952,"RA_OF_ASC_NODE":352.2424,"ARG_OF_PERICENTER":95.9413,"MEAN_ANOMALY":264.1934,"EPHEMERIS_TYPE":0,"CLASSIFICATION_TYPE":"U","NORAD_CAT_ID":47262,"ELEMENT_SET_NO":999,"REV_AT_EPOCH":26347,"BSTAR":0.00084504,"MEAN_MOTION_DOT":3.17e-06,"MEAN_MOTION_DDOT":0.0},{"OBJECT_NAME":"ONEWEB-0117","OBJECT_ID":"2020-100F","EPOCH":"2026-06-09T01:33:09.055296","MEAN_MOTION":13.1244255,"ECCENTRICITY":0.000177,"INCLINATION":87.8946,"RA_OF_ASC_NODE":352.2656,"ARG_OF_PERICENTER":88.8653,"MEAN_ANOMALY":271.2678,"EPHEMERIS_TYPE":0,"CLASSIFICATION_TYPE":"U","NORAD_CAT_ID":47263,"ELEMENT_SET_NO":999,"REV_AT_EPOCH":26346,"BSTAR":0.0012592999999999999,"MEAN_MOTION_DOT":4.66e-06,"MEAN_MOTION_DDOT":0.0},{"OBJECT_NAME":"ONEWEB-0118","OBJECT_ID":"2020-100G","EPOCH":"2026-06-09T06:01:29.206272","MEAN_MOTION":13.12442846,"ECCENTRICITY":0.0002092,"INCLINATION":87.8949,"RA_OF_ASC_NODE":352.2311,"ARG_OF_PERICENTER":93.1463,"MEAN_ANOMALY":266.9905,"EPHEMERIS_TYPE":0,"CLASSIFICATION_TYPE":"U","NORAD_CAT_ID":47264,"ELEMENT_SET_NO":999,"REV_AT_EPOCH":26368,"BSTAR":-0.0012266,"MEAN_MOTION_DOT":-4.29e-06,"MEAN_MOTION_DDOT":0.0},{"OBJECT_NAME":"ONEWEB-0119","OBJECT_ID":"2020-100H","EPOCH":"2026-06-09T01:08:45.266496","MEAN_MOTION":13.12444103,"ECCENTRICITY":0.0001807,"INCLINATION":87.8938,"RA_OF_ASC_NODE":352.2892,"ARG_OF_PERICENTER":89.5777,"MEAN_ANOMALY":270.5558,"EPHEMERIS_TYPE":0,"CLASSIFICATION_TYPE":"U","NORAD_CAT_ID":47265,"ELEMENT_SET_NO":999,"REV_AT_EPOCH":26363,"BSTAR":0.0005200599999999999,"MEAN_MOTION_DOT":2e-06,"MEAN_MOTION_DDOT":0.0},{"OBJECT_NAME":"ONEWEB-0120","OBJECT_ID":"2020-100J","EPOCH":"2026-06-09T05:22:40.464480","MEAN_MOTION":13.12442934,"ECCENTRICITY":0.0001761,"INCLINATION":87.8939,"RA_OF_ASC_NODE":352.2551,"ARG_OF_PERICENTER":94.9063,"MEAN_ANOMALY":265.2267,"EPHEMERIS_TYPE":0,"CLASSIFICATION_TYPE":"U","NORAD_CAT_ID":47266,"ELEMENT_SET_NO":999,"REV_AT_EPOCH":26368,"BSTAR":0.0009048000000000001,"MEAN_MOTION_DOT":3.38e-06,"MEAN_MOTION_DDOT":0.0},{"OBJECT_NAME":"ONEWEB-0121","OBJECT_ID":"2020-100K","EPOCH":"2026-06-09T06:55:10.581888","MEAN_MOTION":13.12443271,"ECCENTRICITY":0.0001819,"INCLINATION":87.8949,"RA_OF_ASC_NODE":352.2278,"ARG_OF_PERICENTER":79.1813,"MEAN_ANOMALY":280.952,"EPHEMERIS_TYPE":0,"CLASSIFICATION_TYPE":"U","NORAD_CAT_ID":47267,"ELEMENT_SET_NO":999,"REV_AT_EPOCH":26360,"BSTAR":0.0013314000000000002,"MEAN_MOTION_DOT":4.92e-06,"MEAN_MOTION_DDOT":0.0},{"OBJECT_NAME":"ONEWEB-0122","OBJECT_ID":"2020-100L","EPOCH":"2026-06-09T06:46:38.781984","MEAN_MOTION":13.12443564,"ECCENTRICITY":0.0001686,"INCLINATION":87.8949,"RA_OF_ASC_NODE":352.2333,"ARG_OF_PERICENTER":92.7597,"MEAN_ANOMALY":267.3724,"EPHEMERIS_TYPE":0,"CLASSIFICATION_TYPE":"U","NORAD_CAT_ID":47268,"ELEMENT_SET_NO":999,"REV_AT_EPOCH":26351,"BSTAR":0.00097028,"MEAN_MOTION_DOT":3.62e-06,"MEAN_MOTION_DDOT":0.0},{"OBJECT_NAME":"ONEWEB-0123","OBJECT_ID":"2020-100M","EPOCH":"2026-06-09T06:40:32.329344","MEAN_MOTION":13.12444532,"ECCENTRICITY":0.0001891,"INCLINATION":87.894,"RA_OF_ASC_NODE":352.2425,"ARG_OF_PERICENTER":89.9921,"MEAN_ANOMALY":270.1425,"EPHEMERIS_TYPE":0,"CLASSIFICATION_TYPE":"U","NORAD_CAT_ID":47269,"ELEMENT_SET_NO":999,"REV_AT_EPOCH":26365,"BSTAR":0.00067239,"MEAN_MOTION_DOT":2.55e-06,"MEAN_MOTION_DDOT":0.0},{"OBJECT_NAME":"ONEWEB-0124","OBJECT_ID":"2020-100N","EPOCH":"2026-06-09T06:25:53.668128","MEAN_MOTION":13.12444671,"ECCENTRICITY":0.0001825,"INCLINATION":87.8937,"RA_OF_ASC_NODE":352.2477,"ARG_OF_PERICENTER":85.998,"MEAN_ANOMALY":274.1357,"EPHEMERIS_TYPE":0,"CLASSIFICATION_TYPE":"U","NORAD_CAT_ID":47270,"ELEMENT_SET_NO":999,"REV_AT_EPOCH":26353,"BSTAR":-0.00025595,"MEAN_MOTION_DOT":-7.9e-07,"MEAN_MOTION_DDOT":0.0},{"OBJECT_NAME":"ONEWEB-0125","OBJECT_ID":"2020-100P","EPOCH":"2026-06-09T05:54:10.130112","MEAN_MOTION":13.12443707,"ECCENTRICITY":0.0002028,"INCLINATION":87.8949,"RA_OF_ASC_NODE":352.234,"ARG_OF_PERICENTER":82.3862,"MEAN_ANOMALY":277.7497,"EPHEMERIS_TYPE":0,"CLASSIFICATION_TYPE":"U","NORAD_CAT_ID":47271,"ELEMENT_SET_NO":999,"REV_AT_EPOCH":26359,"BSTAR":-0.00091626,"MEAN_MOTION_DOT":-3.17e-06,"MEAN_MOTION_DDOT":0.0},{"OBJECT_NAME":"ONEWEB-0126","OBJECT_ID":"2020-100Q","EPOCH":"2026-06-09T06:23:39.493248","MEAN_MOTION":13.12443542,"ECCENTRICITY":0.0001826,"INCLINATION":87.8943,"RA_OF_ASC_NODE":352.2466,"ARG_OF_PERICENTER":93.4568,"MEAN_ANOMALY":266.6769,"EPHEMERIS_TYPE":0,"CLASSIFICATION_TYPE":"U","NORAD_CAT_ID":47272,"ELEMENT_SET_NO":999,"REV_AT_EPOCH":26366,"BSTAR":-0.0004456,"MEAN_MOTION_DOT":-1.48e-06,"MEAN_MOTION_DDOT":0.0},{"OBJECT_NAME":"ONEWEB-0127","OBJECT_ID":"2020-100R","EPOCH":"2026-06-09T05:34:39.457632","MEAN_MOTION":13.12442839,"ECCENTRICITY":0.0001752,"INCLINATION":87.8938,"RA_OF_ASC_NODE":352.2521,"ARG_OF_PERICENTER":93.0163,"MEAN_ANOMALY":267.1166,"EPHEMERIS_TYPE":0,"CLASSIFICATION_TYPE":"U","NORAD_CAT_ID":47273,"ELEMENT_SET_NO":999,"REV_AT_EPOCH":26368,"BSTAR":0.00023229000000000001,"MEAN_MOTION_DOT":9.6e-07,"MEAN_MOTION_DDOT":0.0},{"OBJECT_NAME":"ONEWEB-0128","OBJECT_ID":"2020-100S","EPOCH":"2026-06-09T06:06:21.726432","MEAN_MOTION":13.12442638,"ECCENTRICITY":0.0001553,"INCLINATION":87.8937,"RA_OF_ASC_NODE":352.2624,"ARG_OF_PERICENTER":83.5124,"MEAN_ANOMALY":276.6181,"EPHEMERIS_TYPE":0,"CLASSIFICATION_TYPE":"U","NORAD_CAT_ID":47274,"ELEMENT_SET_NO":999,"REV_AT_EPOCH":26370,"BSTAR":-0.0011052,"MEAN_MOTION_DOT":-3.85e-06,"MEAN_MOTION_DDOT":0.0},{"OBJECT_NAME":"ONEWEB-0129","OBJECT_ID":"2020-100T","EPOCH":"2026-06-09T05:37:05.966976","MEAN_MOTION":13.12441872,"ECCENTRICITY":0.0002035,"INCLINATION":87.8948,"RA_OF_ASC_NODE":352.2387,"ARG_OF_PERICENTER":122.4908,"MEAN_ANOMALY":237.6418,"EPHEMERIS_TYPE":0,"CLASSIFICATION_TYPE":"U","NORAD_CAT_ID":47275,"ELEMENT_SET_NO":999,"REV_AT_EPOCH":26363,"BSTAR":-3.2800000000000004e-05,"MEAN_MOTION_DOT":1e-08,"MEAN_MOTION_DDOT":0.0},{"OBJECT_NAME":"ONEWEB-0130","OBJECT_ID":"2020-100U","EPOCH":"2026-06-09T06:16:08.050656","MEAN_MOTION":13.12443978,"ECCENTRICITY":0.0001733,"INCLINATION":87.895,"RA_OF_ASC_NODE":352.2289,"ARG_OF_PERICENTER":91.6736,"MEAN_ANOMALY":268.4591,"EPHEMERIS_TYPE":0,"CLASSIFICATION_TYPE":"U","NORAD_CAT_ID":47276,"ELEMENT_SET_NO":999,"REV_AT_EPOCH":26360,"BSTAR":-0.00090936,"MEAN_MOTION_DOT":-3.14e-06,"MEAN_MOTION_DDOT":0.0},{"OBJECT_NAME":"ONEWEB-0131","OBJECT_ID":"2020-100V","EPOCH":"2026-06-09T06:11:14.581824","MEAN_MOTION":13.12444062,"ECCENTRICITY":0.0001764,"INCLINATION":87.8937,"RA_OF_ASC_NODE":352.2485,"ARG_OF_PERICENTER":89.5174,"MEAN_ANOMALY":270.6157,"EPHEMERIS_TYPE":0,"CLASSIFICATION_TYPE":"U","NORAD_CAT_ID":47277,"ELEMENT_SET_NO":999,"REV_AT_EPOCH":26364,"BSTAR":-0.0010405,"MEAN_MOTION_DOT":-3.62e-06,"MEAN_MOTION_DDOT":0.0}]